start=new Date('2021-09-17T00:00:00.000Z').valueOf();
sats=[{"GP_ID":"184823723","MEAN_MOTION":"15.06400600","COUNTRY_CODE":"US","SEMIMAJOR_AXIS":"6925.347","ARG_OF_PERICENTER":"76.8506","OBJECT_TYPE":"PAYLOAD","OBJECT_NAME":"STARLINK-2599","RA_OF_ASC_NODE":"134.2104","REF_FRAME":"TEME","SITE":"AFETR","APOAPSIS":"548.718","TLE_LINE1":"1 48383U 21038AG  21259.07076231  .00001124  00000-0  94392-4 0  9994","PERIOD":"95.592","OBJECT_ID":"2021-038AG","MEAN_MOTION_DDOT":"0.0000000000000","RCS_SIZE":"LARGE","MEAN_ELEMENT_THEORY":"SGP4","LAUNCH_DATE":"2021-05-04","TLE_LINE2":"2 48383  53.0495 134.2104 0002175  76.8506 283.2725 15.06400600 21864","CLASSIFICATION_TYPE":"U","DECAY_DATE":null,"EPHEMERIS_TYPE":"0","INCLINATION":"53.0495","REV_AT_EPOCH":"2186","MEAN_MOTION_DOT":"0.00001124","NORAD_CAT_ID":"48383","TIME_SYSTEM":"UTC","MEAN_ANOMALY":"283.2725","PERIAPSIS":"545.705","FILE":"3117121","CENTER_NAME":"EARTH","BSTAR":"0.00009439200000","EPOCH":"2021-09-16T01:41:53.863584","ECCENTRICITY":"0.00021750","ELEMENT_SET_NO":"999"},{"MEAN_ANOMALY":"283.3313","PERIAPSIS":"545.845","FILE":"3117121","CENTER_NAME":"EARTH","BSTAR":"0.00009479000000","INCLINATION":"53.0528","DECAY_DATE":null,"EPHEMERIS_TYPE":"0","REV_AT_EPOCH":"2186","MEAN_MOTION_DOT":"0.00001130","NORAD_CAT_ID":"48384","TIME_SYSTEM":"UTC","EPOCH":"2021-09-16T01:36:35.956512","ECCENTRICITY":"0.00019850","ELEMENT_SET_NO":"999","SEMIMAJOR_AXIS":"6925.354","GP_ID":"184823131","COUNTRY_CODE":"US","MEAN_MOTION":"15.06398073","PERIOD":"95.592","MEAN_MOTION_DDOT":"0.0000000000000","OBJECT_ID":"2021-038AH","MEAN_ELEMENT_THEORY":"SGP4","RCS_SIZE":"LARGE","LAUNCH_DATE":"2021-05-04","TLE_LINE2":"2 48384  53.0528 134.2062 0001985  76.7897 283.3313 15.06398073 21869","CLASSIFICATION_TYPE":"U","OBJECT_NAME":"STARLINK-2601","OBJECT_TYPE":"PAYLOAD","ARG_OF_PERICENTER":"76.7897","RA_OF_ASC_NODE":"134.2062","SITE":"AFETR","REF_FRAME":"TEME","APOAPSIS":"548.594","TLE_LINE1":"1 48384U 21038AH  21259.06708283  .00001130  00000-0  94790-4 0  9992"},{"GP_ID":"184827007","COUNTRY_CODE":"US","MEAN_MOTION":"15.06389457","SEMIMAJOR_AXIS":"6925.381","OBJECT_NAME":"STARLINK-2598","OBJECT_TYPE":"PAYLOAD","ARG_OF_PERICENTER":"80.9401","RA_OF_ASC_NODE":"134.2185","REF_FRAME":"TEME","SITE":"AFETR","APOAPSIS":"548.726","TLE_LINE1":"1 48385U 21038AJ  21259.06340175 -.00001101  00000-0 -55007-4 0  9993","PERIOD":"95.593","OBJECT_ID":"2021-038AJ","MEAN_MOTION_DDOT":"0.0000000000000","MEAN_ELEMENT_THEORY":"SGP4","RCS_SIZE":"LARGE","TLE_LINE2":"2 48385  53.0541 134.2185 0002137  80.9401 279.1829 15.06389457 21220","LAUNCH_DATE":"2021-05-04","CLASSIFICATION_TYPE":"U","DECAY_DATE":null,"EPHEMERIS_TYPE":"0","INCLINATION":"53.0541","REV_AT_EPOCH":"2122","MEAN_MOTION_DOT":"-0.00001101","NORAD_CAT_ID":"48385","TIME_SYSTEM":"UTC","MEAN_ANOMALY":"279.1829","PERIAPSIS":"545.766","FILE":"3117279","CENTER_NAME":"EARTH","BSTAR":"-0.00005500700000","ECCENTRICITY":"0.00021370","EPOCH":"2021-09-16T01:31:17.911200","ELEMENT_SET_NO":"999"},{"ECCENTRICITY":"0.00023820","EPOCH":"2021-09-16T22:00:00.999936","ELEMENT_SET_NO":"999","PERIAPSIS":"545.581","MEAN_ANOMALY":"303.8067","BSTAR":"-0.00098802000000","CENTER_NAME":"EARTH","FILE":"3117438","MEAN_MOTION_DOT":"-0.00014966","REV_AT_EPOCH":"361","DECAY_DATE":null,"EPHEMERIS_TYPE":"0","INCLINATION":"53.0553","TIME_SYSTEM":"UTC","NORAD_CAT_ID":"48386","MEAN_ELEMENT_THEORY":"SGP4","RCS_SIZE":"LARGE","OBJECT_ID":"2021-038AK","MEAN_MOTION_DDOT":"0.0000000000000","PERIOD":"95.592","CLASSIFICATION_TYPE":"U","LAUNCH_DATE":"2021-05-04","TLE_LINE2":"2 48386  53.0553 125.3895 0002382  78.8766 303.8067 15.06394341  3615","RA_OF_ASC_NODE":"125.3895","ARG_OF_PERICENTER":"78.8766","OBJECT_TYPE":"PAYLOAD","OBJECT_NAME":"STARLINK-2606","TLE_LINE1":"1 48386U 21038AK  21259.91667824 -.00014966  00000-0 -98802-3 0  9993","APOAPSIS":"548.881","REF_FRAME":"TEME","SITE":"AFETR","SEMIMAJOR_AXIS":"6925.366","GP_ID":"184853748","COUNTRY_CODE":"US","MEAN_MOTION":"15.06394341"},{"GP_ID":"184853645","MEAN_MOTION":"15.06390150","COUNTRY_CODE":"US","SEMIMAJOR_AXIS":"6925.379","OBJECT_NAME":"STARLINK-2600","OBJECT_TYPE":"PAYLOAD","ARG_OF_PERICENTER":"86.3349","RA_OF_ASC_NODE":"125.3930","APOAPSIS":"548.742","REF_FRAME":"TEME","SITE":"AFETR","TLE_LINE1":"1 48387U 21038AL  21259.91667824 -.00009829  00000-0 -64196-3 0  9995","OBJECT_ID":"2021-038AL","MEAN_MOTION_DDOT":"0.0000000000000","PERIOD":"95.593","RCS_SIZE":"LARGE","MEAN_ELEMENT_THEORY":"SGP4","TLE_LINE2":"2 48387  53.0547 125.3930 0002164  86.3349 116.2867 15.06390150  3616","LAUNCH_DATE":"2021-05-04","CLASSIFICATION_TYPE":"U","REV_AT_EPOCH":"361","DECAY_DATE":null,"INCLINATION":"53.0547","EPHEMERIS_TYPE":"0","MEAN_MOTION_DOT":"-0.00009829","NORAD_CAT_ID":"48387","TIME_SYSTEM":"UTC","PERIAPSIS":"545.745","MEAN_ANOMALY":"116.2867","CENTER_NAME":"EARTH","FILE":"3117438","BSTAR":"-0.00064196000000","ECCENTRICITY":"0.00021640","EPOCH":"2021-09-16T22:00:00.999936","ELEMENT_SET_NO":"999"},{"MEAN_MOTION_DOT":"-0.00008947","EPHEMERIS_TYPE":"0","DECAY_DATE":null,"INCLINATION":"53.0538","REV_AT_EPOCH":"365","TIME_SYSTEM":"UTC","NORAD_CAT_ID":"48388","MEAN_ANOMALY":"162.6539","PERIAPSIS":"545.368","BSTAR":"-0.00058255000000","FILE":"3117438","CENTER_NAME":"EARTH","ECCENTRICITY":"0.00027000","EPOCH":"2021-09-16T22:00:00.999936","ELEMENT_SET_NO":"999","GP_ID":"184853651","MEAN_MOTION":"15.06391956","COUNTRY_CODE":"US","SEMIMAJOR_AXIS":"6925.373","RA_OF_ASC_NODE":"125.3880","OBJECT_TYPE":"PAYLOAD","ARG_OF_PERICENTER":"74.8503","OBJECT_NAME":"STARLINK-2594","TLE_LINE1":"1 48388U 21038AM  21259.91667824 -.00008947  00000-0 -58255-3 0  9995","SITE":"AFETR","REF_FRAME":"TEME","APOAPSIS":"549.108","RCS_SIZE":"LARGE","MEAN_ELEMENT_THEORY":"SGP4","PERIOD":"95.593","OBJECT_ID":"2021-038AM","MEAN_MOTION_DDOT":"0.0000000000000","CLASSIFICATION_TYPE":"U","LAUNCH_DATE":"2021-05-04","TLE_LINE2":"2 48388  53.0538 125.3880 0002700  74.8503 162.6539 15.06391956  3651"},{"TLE_LINE1":"1 48389U 21038AN  21259.91667824 -.00006540  00000-0 -42058-3 0  9997","APOAPSIS":"548.781","SITE":"AFETR","REF_FRAME":"TEME","RA_OF_ASC_NODE":"120.3916","ARG_OF_PERICENTER":"85.9242","OBJECT_TYPE":"PAYLOAD","OBJECT_NAME":"STARLINK-1904","CLASSIFICATION_TYPE":"U","LAUNCH_DATE":"2021-05-04","TLE_LINE2":"2 48389  53.0520 120.3916 0002250  85.9242 219.0983 15.06396980  3563","MEAN_ELEMENT_THEORY":"SGP4","RCS_SIZE":"LARGE","MEAN_MOTION_DDOT":"0.0000000000000","OBJECT_ID":"2021-038AN","PERIOD":"95.592","MEAN_MOTION":"15.06396980","COUNTRY_CODE":"US","GP_ID":"184853532","SEMIMAJOR_AXIS":"6925.358","ELEMENT_SET_NO":"999","ECCENTRICITY":"0.00022500","EPOCH":"2021-09-16T22:00:00.999936","TIME_SYSTEM":"UTC","NORAD_CAT_ID":"48389","MEAN_MOTION_DOT":"-0.00006540","REV_AT_EPOCH":"356","INCLINATION":"53.0520","DECAY_DATE":null,"EPHEMERIS_TYPE":"0","BSTAR":"-0.00042058000000","CENTER_NAME":"EARTH","FILE":"3117438","PERIAPSIS":"545.665","MEAN_ANOMALY":"219.0983"},{"EPHEMERIS_TYPE":"0","DECAY_DATE":null,"INCLINATION":"53.0542","REV_AT_EPOCH":"360","MEAN_MOTION_DOT":"-0.00007795","NORAD_CAT_ID":"48390","TIME_SYSTEM":"UTC","MEAN_ANOMALY":"243.9865","PERIAPSIS":"545.615","FILE":"3117438","CENTER_NAME":"EARTH","BSTAR":"-0.00050519000000","ECCENTRICITY":"0.00023930","EPOCH":"2021-09-16T22:00:00.999936","ELEMENT_SET_NO":"999","GP_ID":"184853435","MEAN_MOTION":"15.06380970","COUNTRY_CODE":"US","SEMIMAJOR_AXIS":"6925.407","OBJECT_NAME":"STARLINK-2586","OBJECT_TYPE":"PAYLOAD","ARG_OF_PERICENTER":"81.0647","RA_OF_ASC_NODE":"120.3922","REF_FRAME":"TEME","SITE":"AFETR","APOAPSIS":"548.929","TLE_LINE1":"1 48390U 21038AP  21259.91667824 -.00007795  00000-0 -50519-3 0  9993","PERIOD":"95.593","OBJECT_ID":"2021-038AP","MEAN_MOTION_DDOT":"0.0000000000000","RCS_SIZE":"LARGE","MEAN_ELEMENT_THEORY":"SGP4","TLE_LINE2":"2 48390  53.0542 120.3922 0002393  81.0647 243.9865 15.06380970  3602","LAUNCH_DATE":"2021-05-04","CLASSIFICATION_TYPE":"U"},{"ARG_OF_PERICENTER":"83.8706","OBJECT_TYPE":"PAYLOAD","OBJECT_NAME":"STARLINK-2607","RA_OF_ASC_NODE":"120.3936","APOAPSIS":"548.948","REF_FRAME":"TEME","SITE":"AFETR","TLE_LINE1":"1 48391U 21038AQ  21259.91667824 -.00009380  00000-0 -61164-3 0  9994","MEAN_MOTION_DDOT":"0.0000000000000","OBJECT_ID":"2021-038AQ","PERIOD":"95.592","MEAN_ELEMENT_THEORY":"SGP4","RCS_SIZE":"LARGE","LAUNCH_DATE":"2021-05-04","TLE_LINE2":"2 48391  53.0541 120.3936 0002492  83.8706 261.1634 15.06397312  3607","CLASSIFICATION_TYPE":"U","GP_ID":"184853938","COUNTRY_CODE":"US","MEAN_MOTION":"15.06397312","SEMIMAJOR_AXIS":"6925.357","ECCENTRICITY":"0.00024920","EPOCH":"2021-09-16T22:00:00.999936","ELEMENT_SET_NO":"999","REV_AT_EPOCH":"360","INCLINATION":"53.0541","DECAY_DATE":null,"EPHEMERIS_TYPE":"0","MEAN_MOTION_DOT":"-0.00009380","NORAD_CAT_ID":"48391","TIME_SYSTEM":"UTC","PERIAPSIS":"545.496","MEAN_ANOMALY":"261.1634","CENTER_NAME":"EARTH","FILE":"3117438","BSTAR":"-0.00061164000000"},{"ECCENTRICITY":"0.00025570","EPOCH":"2021-09-16T22:00:00.999936","ELEMENT_SET_NO":"999","MEAN_MOTION_DOT":"-0.00010754","REV_AT_EPOCH":"361","DECAY_DATE":null,"INCLINATION":"53.0544","EPHEMERIS_TYPE":"0","TIME_SYSTEM":"UTC","NORAD_CAT_ID":"48392","PERIAPSIS":"545.460","MEAN_ANOMALY":"279.6212","BSTAR":"-0.00070416000000","CENTER_NAME":"EARTH","FILE":"3117438","RA_OF_ASC_NODE":"120.3896","OBJECT_TYPE":"PAYLOAD","OBJECT_NAME":"STARLINK-2605","ARG_OF_PERICENTER":"85.4371","TLE_LINE1":"1 48392U 21038AR  21259.91667824 -.00010754  00000-0 -70416-3 0  9992","APOAPSIS":"549.002","REF_FRAME":"TEME","SITE":"AFETR","RCS_SIZE":"LARGE","MEAN_ELEMENT_THEORY":"SGP4","OBJECT_ID":"2021-038AR","MEAN_MOTION_DDOT":"0.0000000000000","PERIOD":"95.592","CLASSIFICATION_TYPE":"U","LAUNCH_DATE":"2021-05-04","TLE_LINE2":"2 48392  53.0544 120.3896 0002557  85.4371 279.6212 15.06394331  3619","GP_ID":"184853338","COUNTRY_CODE":"US","MEAN_MOTION":"15.06394331","SEMIMAJOR_AXIS":"6925.366"}];
